HIMAWARI-8              
1 40267U 14060A   23325.53787226 -.00000271  00000+0  00000+0 0  9994
2 40267   0.0106 104.7782 0000491 163.2872 126.5343  1.00271562 33341
